{"fetched_at":"2026-03-30T13:17:50Z","count":15418,"tles":[{"name":"STARLINK-3147","line1":"1 49410U 21104C   26087.86362244  .00000770  00000+0  66479-4 0  9993","line2":"2 49410  53.2161 143.0537 0001246  83.3423 276.7711 15.08838510241521","category":"Starlink"}]}