{
  "norad_id": 49410,
  "name": "STARLINK-3147",
  "history": [
    {
      "epoch": "2026-03-28T20:43:36.978816",
      "apogee_km": 540.6104651964997,
      "perigee_km": 538.885421407037,
      "latitude_deg": -52.94109291086938,
      "longitude_deg": -76.09224575990811,
      "semi_major_axis_km": 6917.884943301768,
      "eccentricity": 0.00012468,
      "inclination_deg": 53.2161,
      "raan_deg": 143.0537,
      "arg_perigee_deg": 83.3423,
      "mean_anomaly_deg": 276.7711,
      "mean_motion_rev_day": 15.0883851
    }
  ]
}